STARLINK-32519          
1 62317U 24239S   26068.52829245  .00036721  00000+0  12466-2 0  9997
2 62317  53.1576 181.5663 0001289  53.2355 306.8764 15.30178787 69546
KUIPER-00208            
1 67775U 26030M   26068.67231509  .00043852  00000+0  13883-2 0  9994
2 67775  51.8846 219.6993 0015525  57.3146 302.9333 15.32208734  5080
