[{"OBJECT_NAME":"STARLINK-32519","OBJECT_ID":"2024-239S","EPOCH":"2026-03-09T12:40:44.467680","MEAN_MOTION":15.30178787,"ECCENTRICITY":0.00012899,"INCLINATION":53.1576,"RA_OF_ASC_NODE":181.5663,"ARG_OF_PERICENTER":53.2355,"MEAN_ANOMALY":306.8764,"EPHEMERIS_TYPE":0,"CLASSIFICATION_TYPE":"U","NORAD_CAT_ID":62317,"ELEMENT_SET_NO":999,"REV_AT_EPOCH":6954,"BSTAR":0.001246621,"MEAN_MOTION_DOT":0.00036721,"MEAN_MOTION_DDOT":0},{"OBJECT_NAME":"KUIPER-00208","OBJECT_ID":"2026-030M","EPOCH":"2026-03-09T16:08:08.024640","MEAN_MOTION":15.32208734,"ECCENTRICITY":0.00155248,"INCLINATION":51.8846,"RA_OF_ASC_NODE":219.6993,"ARG_OF_PERICENTER":57.3146,"MEAN_ANOMALY":302.9333,"EPHEMERIS_TYPE":0,"CLASSIFICATION_TYPE":"U","NORAD_CAT_ID":67775,"ELEMENT_SET_NO":999,"REV_AT_EPOCH":508,"BSTAR":0.0013882708,"MEAN_MOTION_DOT":0.00043852,"MEAN_MOTION_DDOT":0}]
